{
  "type": "FeatureCollection",
  "features": [
    {
      "type": "Feature",
      "properties": {
        "norad_id": 38091,
        "name": "BEIDOU-2 G5 (C05)",
        "group": "gnss",
        "lat": -1.936507057067382,
        "lon": 31.779195799042487,
        "alt_km": 35790.13668348692,
        "timestamp": "2025-12-09T16:56:36.817371+00:00",
        "meta_object_name": "BEIDOU-2 G5 (C05)",
        "meta_object_id": "2012-008A",
        "meta_epoch": "2025-12-09T12:08:23.418240",
        "meta_mean_motion": 1.00274244,
        "meta_eccentricity": 0.001252,
        "meta_inclination": 3.101,
        "meta_ra_of_asc_node": 70.7112,
        "meta_arg_of_pericenter": 226.3048,
        "meta_mean_anomaly": 22.3247,
        "meta_ephemeris_type": 0,
        "meta_classification_type": "U",
        "meta_norad_cat_id": 38091,
        "meta_element_set_no": 999,
        "meta_rev_at_epoch": 5046,
        "meta_bstar": 0,
        "meta_mean_motion_dot": 5.8e-07,
        "meta_mean_motion_ddot": 0,
        "tle_line1": "1 38091U 12008A   25343.50582660  .00000058  00000+0  00000+0 0  9992",
        "tle_line2": "2 38091   3.1010  70.7112 0012520 226.3048  22.3247  1.00274244 50460"
      },
      "geometry": {
        "type": "Point",
        "coordinates": [
          31.779195799042487,
          -1.936507057067382
        ]
      }
    },
    {
      "type": "Feature",
      "properties": {
        "norad_id": 38250,
        "name": "BEIDOU-2 M3 (C11)",
        "group": "gnss",
        "lat": 34.06279131065093,
        "lon": -21.540079515155032,
        "alt_km": 21566.781189415877,
        "timestamp": "2025-12-09T16:56:36.817383+00:00",
        "meta_object_name": "BEIDOU-2 M3 (C11)",
        "meta_object_id": "2012-018A",
        "meta_epoch": "2025-12-09T02:31:53.071968",
        "meta_mean_motion": 1.86229533,
        "meta_eccentricity": 0.0024471,
        "meta_inclination": 55.9232,
        "meta_ra_of_asc_node": 311.2798,
        "meta_arg_of_pericenter": 273.7022,
        "meta_mean_anomaly": 86.0063,
        "meta_ephemeris_type": 0,
        "meta_classification_type": "U",
        "meta_norad_cat_id": 38250,
        "meta_element_set_no": 999,
        "meta_rev_at_epoch": 9240,
        "meta_bstar": 0,
        "meta_mean_motion_dot": -7.5e-07,
        "meta_mean_motion_ddot": 0,
        "tle_line1": "1 38250U 12018A   25343.10547537 -.00000075  00000+0  00000+0 0  9990",
        "tle_line2": "2 38250  55.9232 311.2798 0024471 273.7022  86.0063  1.86229533 92405"
      },
      "geometry": {
        "type": "Point",
        "coordinates": [
          -21.540079515155032,
          34.06279131065093
        ]
      }
    },
    {
      "type": "Feature",
      "properties": {
        "norad_id": 38251,
        "name": "BEIDOU-2 M4 (C12)",
        "group": "gnss",
        "lat": 55.77431815737954,
        "lon": 36.977278429990626,
        "alt_km": 21565.012325262553,
        "timestamp": "2025-12-09T16:56:36.817395+00:00",
        "meta_object_name": "BEIDOU-2 M4 (C12)",
        "meta_object_id": "2012-018B",
        "meta_epoch": "2025-12-09T00:54:01.831680",
        "meta_mean_motion": 1.86229294,
        "meta_eccentricity": 0.0015648,
        "meta_inclination": 55.8248,
        "meta_ra_of_asc_node": 310.5114,
        "meta_arg_of_pericenter": 276.694,
        "meta_mean_anomaly": 83.1162,
        "meta_ephemeris_type": 0,
        "meta_classification_type": "U",
        "meta_norad_cat_id": 38251,
        "meta_element_set_no": 999,
        "meta_rev_at_epoch": 9240,
        "meta_bstar": 0,
        "meta_mean_motion_dot": -7.4e-07,
        "meta_mean_motion_ddot": 0,
        "tle_line1": "1 38251U 12018B   25343.03752120 -.00000074  00000+0  00000+0 0  9998",
        "tle_line2": "2 38251  55.8248 310.5114 0015648 276.6940  83.1162  1.86229294 92405"
      },
      "geometry": {
        "type": "Point",
        "coordinates": [
          36.977278429990626,
          55.77431815737954
        ]
      }
    },
    {
      "type": "Feature",
      "properties": {
        "norad_id": 38652,
        "name": "SES-5 (EGNOS/PRN 136)",
        "group": "gnss",
        "lat": 0.03302225487301187,
        "lon": -22.149147112212955,
        "alt_km": 35785.1915614334,
        "timestamp": "2025-12-09T16:56:36.817407+00:00",
        "meta_object_name": "SES-5 (EGNOS/PRN 136)",
        "meta_object_id": "2012-036A",
        "meta_epoch": "2025-12-09T06:50:38.879808",
        "meta_mean_motion": 1.00271061,
        "meta_eccentricity": 0.0002143,
        "meta_inclination": 0.0596,
        "meta_ra_of_asc_node": 303.8125,
        "meta_arg_of_pericenter": 310.7043,
        "meta_mean_anomaly": 291.4078,
        "meta_ephemeris_type": 0,
        "meta_classification_type": "U",
        "meta_norad_cat_id": 38652,
        "meta_element_set_no": 999,
        "meta_rev_at_epoch": 4256,
        "meta_bstar": 0,
        "meta_mean_motion_dot": 3.6e-07,
        "meta_mean_motion_ddot": 0,
        "tle_line1": "1 38652U 12036A   25343.28517222  .00000036  00000+0  00000+0 0  9999",
        "tle_line2": "2 38652   0.0596 303.8125 0002143 310.7043 291.4078  1.00271061 42562"
      },
      "geometry": {
        "type": "Point",
        "coordinates": [
          -22.149147112212955,
          0.03302225487301187
        ]
      }
    },
    {
      "type": "Feature",
      "properties": {
        "norad_id": 38775,
        "name": "BEIDOU-2 M6 (C14)",
        "group": "gnss",
        "lat": -54.60171485672246,
        "lon": -0.06899464581791294,
        "alt_km": 21520.04643191749,
        "timestamp": "2025-12-09T16:56:36.817419+00:00",
        "meta_object_name": "BEIDOU-2 M6 (C14)",
        "meta_object_id": "2012-050B",
        "meta_epoch": "2025-12-09T06:50:59.454240",
        "meta_mean_motion": 1.86230769,
        "meta_eccentricity": 0.001108,
        "meta_inclination": 56.3755,
        "meta_ra_of_asc_node": 69.1821,
        "meta_arg_of_pericenter": 345.0946,
        "meta_mean_anomaly": 14.8952,
        "meta_ephemeris_type": 0,
        "meta_classification_type": "U",
        "meta_norad_cat_id": 38775,
        "meta_element_set_no": 999,
        "meta_rev_at_epoch": 8977,
        "meta_bstar": 0,
        "meta_mean_motion_dot": -4.8e-07,
        "meta_mean_motion_ddot": 0,
        "tle_line1": "1 38775U 12050B   25343.28541035 -.00000048  00000+0  00000+0 0  9994",
        "tle_line2": "2 38775  56.3755  69.1821 0011080 345.0946  14.8952  1.86230769 89773"
      },
      "geometry": {
        "type": "Point",
        "coordinates": [
          -0.06899464581791294,
          -54.60171485672246
        ]
      }
    },
    {
      "type": "Feature",
      "properties": {
        "norad_id": 38779,
        "name": "GSAT-10 (GAGAN/PRN 128)",
        "group": "gnss",
        "lat": 0.01853057765061752,
        "lon": 55.81029512523029,
        "alt_km": 35782.488602438345,
        "timestamp": "2025-12-09T16:56:36.817431+00:00",
        "meta_object_name": "GSAT-10 (GAGAN/PRN 128)",
        "meta_object_id": "2012-051B",
        "meta_epoch": "2025-12-09T08:49:57.427392",
        "meta_mean_motion": 1.00273307,
        "meta_eccentricity": 0.000217,
        "meta_inclination": 0.0157,
        "meta_ra_of_asc_node": 266.0566,
        "meta_arg_of_pericenter": 219.6476,
        "meta_mean_anomaly": 168.1336,
        "meta_ephemeris_type": 0,
        "meta_classification_type": "U",
        "meta_norad_cat_id": 38779,
        "meta_element_set_no": 999,
        "meta_rev_at_epoch": 4819,
        "meta_bstar": 0,
        "meta_mean_motion_dot": -1.63e-06,
        "meta_mean_motion_ddot": 0,
        "tle_line1": "1 38779U 12051B   25343.36802578 -.00000163  00000+0  00000+0 0  9998",
        "tle_line2": "2 38779   0.0157 266.0566 0002170 219.6476 168.1336  1.00273307 48198"
      },
      "geometry": {
        "type": "Point",
        "coordinates": [
          55.81029512523029,
          0.01853057765061752
        ]
      }
    },
    {
      "type": "Feature",
      "properties": {
        "norad_id": 38833,
        "name": "GPS BIIF-3  (PRN 24)",
        "group": "gnss",
        "lat": -49.32968642032037,
        "lon": 30.684797522947303,
        "alt_km": 20650.942640542387,
        "timestamp": "2025-12-09T16:56:36.817443+00:00",
        "meta_object_name": "GPS BIIF-3  (PRN 24)",
        "meta_object_id": "2012-053A",
        "meta_epoch": "2025-12-09T08:40:03.792864",
        "meta_mean_motion": 2.00564926,
        "meta_eccentricity": 0.0175734,
        "meta_inclination": 53.5568,
        "meta_ra_of_asc_node": 151.3769,
        "meta_arg_of_pericenter": 63.947,
        "meta_mean_anomaly": 297.8481,
        "meta_ephemeris_type": 0,
        "meta_classification_type": "U",
        "meta_norad_cat_id": 38833,
        "meta_element_set_no": 999,
        "meta_rev_at_epoch": 9563,
        "meta_bstar": 0,
        "meta_mean_motion_dot": 6.3e-07,
        "meta_mean_motion_ddot": 0,
        "tle_line1": "1 38833U 12053A   25343.36115501  .00000063  00000+0  00000+0 0  9992",
        "tle_line2": "2 38833  53.5568 151.3769 0175734  63.9470 297.8481  2.00564926 95633"
      },
      "geometry": {
        "type": "Point",
        "coordinates": [
          30.684797522947303,
          -49.32968642032037
        ]
      }
    }
  ]
}